OBJECT_NAME,OBJECT_ID,EPOCH,MEAN_MOTION,ECCENTRICITY,INCLINATION,RA_OF_ASC_NODE,ARG_OF_PERICENTER,MEAN_ANOMALY,EPHEMERIS_TYPE,CLASSIFICATION_TYPE,NORAD_CAT_ID,ELEMENT_SET_NO,REV_AT_EPOCH,BSTAR,MEAN_MOTION_DOT,MEAN_MOTION_DDOT
FENGYUN 3D,2017-072A,2026-06-15T05:52:08.209344,14.19740067,.00025947,99.0119,140.6316,65.7820,294.3627,0,U,43010,999,44471,.12436909E-3,.217E-5,0
NOAA 20 (JPSS-1),2017-073A,2026-06-15T07:25:54.712992,14.19511367,.00002968,98.7772,105.7889,83.6699,276.4511,0,U,43013,999,44420,.35451097E-4,.31E-6,0
GOES 17,2018-022A,2026-06-15T05:47:26.488320,1.00269965,.00004022,0.9325,85.7463,33.5049,141.6365,0,U,43226,999,3040,0,-.179E-5,0
SENTINEL-3B,2018-039A,2026-06-15T03:44:33.072576,14.26734175,.00007334,98.6250,233.7173,85.7408,274.3856,0,U,43437,999,42383,.4839466E-4,.73E-6,0
FENGYUN 2H,2018-050A,2026-06-14T23:45:04.040640,1.00269792,.00019619,3.0244,79.0976,137.5346,122.3352,0,U,43491,999,2941,0,-.127E-5,0
METOP-C,2018-087A,2026-06-15T05:42:40.993344,14.21511609,.00016956,98.6645,225.8772,131.8386,228.2936,0,U,43689,999,39455,.59788832E-4,.87E-6,0
GEO-KOMPSAT-2A,2018-100A,2026-06-15T06:49:32.851200,1.00271401,.00017738,0.0512,123.0616,322.6671,48.4977,0,U,43823,999,2761,0,-.34E-5,0
METEOR-M2 2,2019-038A,2026-06-15T04:58:50.863296,14.24366329,.0002129,98.9136,153.4635,51.2646,308.8722,0,U,44387,999,36101,.11705367E-3,.225E-5,0
ARKTIKA-M 1,2021-016A,2026-06-09T12:22:37.726752,2.00625436,.7285674,63.2417,58.7595,269.8905,14.6803,0,U,47719,999,3863,0,-.149E-5,0
FENGYUN 3E,2021-062A,2026-06-15T05:29:13.000416,14.19903507,.00028503,98.7486,169.6583,88.9459,271.2044,0,U,49008,999,25630,-.30753678E-4,-.109E-5,0
GOES 18,2022-021A,2026-06-15T04:49:23.365632,1.00272501,.00005114,0.0096,95.6793,73.9917,29.1697,0,U,51850,999,657,0,.101E-5,0
NOAA 21 (JPSS-2),2022-150A,2026-06-15T06:31:53.503392,14.19565148,.00015446,98.7060,105.0935,158.2994,201.8248,0,U,54234,999,18627,.38353988E-4,.37E-6,0
METEOSAT-12 (MTG-I1),2022-170C,2026-06-15T06:12:51.369696,1.00272167,.00031298,0.7362,22.6379,71.8765,261.8275,0,U,54743,999,1295,0,-.5E-7,0
TIANMU-1 03,2023-039A,2026-06-15T07:17:47.061024,15.47237491,.00042777,97.5224,340.1995,103.5431,256.6296,0,U,55973,999,18054,.24698804E-3,.12484E-3,0
TIANMU-1 04,2023-039B,2026-06-15T07:03:40.568256,15.47834280,.00048758,97.5161,339.3429,100.7368,259.4431,0,U,55974,999,18055,.24533161E-3,.12661E-3,0
TIANMU-1 05,2023-039C,2026-06-15T06:49:57.330912,15.47164737,.00039179,97.5207,339.7948,119.2896,240.8746,0,U,55975,999,18052,.25156833E-3,.12685E-3,0
TIANMU-1 06,2023-039D,2026-06-15T07:08:22.363584,15.47738951,.00043378,97.5214,340.4421,115.2853,244.8847,0,U,55976,999,18055,.2436798E-3,.12532E-3,0
FENGYUN 3G,2023-055A,2026-06-14T23:34:57.592128,15.52542988,.00069288,49.9936,357.3811,287.4907,72.5303,0,U,56232,999,17966,.35853092E-3,.22053E-3,0
METEOR-M2 3,2023-091A,2026-06-15T06:31:10.706016,14.24046652,.00042549,98.6090,221.2891,160.4135,199.7209,0,U,57166,999,15424,.20219206E-4,.3E-7,0
TIANMU-1 07,2023-101A,2026-06-15T06:26:50.743104,15.29788032,.00040068,97.2592,216.9809,125.4730,234.6885,0,U,57399,999,16135,.18651777E-3,.5308E-4,0
TIANMU-1 08,2023-101B,2026-06-15T07:13:00.569856,15.29792910,.00055296,97.2582,216.7832,119.5804,240.5989,0,U,57400,999,16135,.1848992E-3,.5263E-4,0
TIANMU-1 09,2023-101C,2026-06-15T06:49:10.845120,15.29823471,.00044847,97.2540,216.1837,131.1450,229.0179,0,U,57401,999,16135,.19268322E-3,.5492E-4,0
TIANMU-1 10,2023-101D,2026-06-15T06:02:31.950816,15.29794848,.00060625,97.2620,217.2005,131.1725,229.0040,0,U,57402,999,16134,.19523919E-3,.5562E-4,0
FENGYUN 3F,2023-111A,2026-06-15T06:47:35.640960,14.19938821,.0001584,98.6835,236.3272,94.8219,265.3138,0,U,57490,999,14859,.4496795E-4,.52E-6,0
ARKTIKA-M 2,2023-198A,2026-06-09T18:48:45.592992,2.00606537,.69004015,63.2205,155.1874,267.4353,18.7899,0,U,58584,999,1817,0,.212E-5,0
TIANMU-1 11,2023-205A,2026-06-15T06:49:13.043136,15.26978427,.00092041,97.3441,187.8708,23.6702,336.4959,0,U,58645,999,13723,.18465912E-3,.4822E-4,0
TIANMU-1 12,2023-205B,2026-06-15T06:06:28.655712,15.26942393,.00069491,97.3429,187.5977,10.4938,349.6445,0,U,58646,999,13721,.18489587E-3,.4821E-4,0
TIANMU-1 13,2023-205C,2026-06-15T06:52:33.129984,15.26796174,.00061155,97.3459,187.9015,349.2140,10.8967,0,U,58647,999,13721,.18865922E-3,.4898E-4,0
TIANMU-1 14,2023-205D,2026-06-15T06:31:19.766784,15.26840657,.00070778,97.3394,187.0703,353.0291,7.0848,0,U,58648,999,13721,.18695705E-3,.486E-4,0
TIANMU-1 19,2023-208A,2026-06-15T06:16:41.013120,15.31548724,.00039574,97.4508,282.5511,336.9694,23.1370,0,U,58660,999,13703,.22551114E-3,.6793E-4,0
