FENGYUN 3D              
1 43010U 17072A   26166.24453946  .00000217  00000+0  12437-3 0  9992
2 43010  99.0119 140.6316 0002594  65.7820 294.3627 14.19740067444710
NOAA 20 (JPSS-1)        
1 43013U 17073A   26166.30966103  .00000031  00000+0  35451-4 0  9993
2 43013  98.7772 105.7889 0000296  83.6699 276.4511 14.19511367444207
GOES 17                 
1 43226U 18022A   26166.24127880 -.00000179  00000+0  00000+0 0  9999
2 43226   0.9325  85.7463 0000402  33.5049 141.6365  1.00269965 30402
SENTINEL-3B             
1 43437U 18039A   26166.15593834  .00000073  00000+0  48395-4 0  9993
2 43437  98.6250 233.7173 0000733  85.7408 274.3856 14.26734175423839
FENGYUN 2H              
1 43491U 18050A   26165.98963010 -.00000127  00000+0  00000+0 0  9990
2 43491   3.0244  79.0976 0001961 137.5346 122.3352  1.00269792 29410
METOP-C                 
1 43689U 18087A   26166.23797446  .00000087  00000+0  59789-4 0  9993
2 43689  98.6645 225.8772 0001695 131.8386 228.2936 14.21511609394552
GEO-KOMPSAT-2A          
1 43823U 18100A   26166.28440800 -.00000340  00000+0  00000+0 0  9993
2 43823   0.0512 123.0616 0001773 322.6671  48.4977  1.00271401 27615
METEOR-M2 2             
1 44387U 19038A   26166.20753314  .00000225  00000+0  11705-3 0  9998
2 44387  98.9136 153.4635 0002129  51.2646 308.8722 14.24366329361010
ARKTIKA-M 1             
1 47719U 21016A   26160.51571443 -.00000149  00000+0  00000+0 0  9996
2 47719  63.2417  58.7595 7285674 269.8905  14.6803  2.00625436 38630
FENGYUN 3E              
1 49008U 21062A   26166.22862269 -.00000109  00000+0 -30754-4 0  9994
2 49008  98.7486 169.6583 0002850  88.9459 271.2044 14.19903507256306
GOES 18                 
1 51850U 22021A   26166.20096488  .00000101  00000+0  00000+0 0  9994
2 51850   0.0096  95.6793 0000511  73.9917  29.1697  1.00272501  6578
NOAA 21 (JPSS-2)        
1 54234U 22150A   26166.27214703  .00000037  00000+0  38354-4 0  9991
2 54234  98.7060 105.0935 0001544 158.2994 201.8248 14.19565148186278
METEOSAT-12 (MTG-I1)    
1 54743U 22170C   26166.25892789 -.00000005  00000+0  00000+0 0  9990
2 54743   0.7362  22.6379 0003129  71.8765 261.8275  1.00272167 12955
TIANMU-1 03             
1 55973U 23039A   26166.30401691  .00012484  00000+0  24699-3 0  9992
2 55973  97.5224 340.1995 0004277 103.5431 256.6296 15.47237491180545
TIANMU-1 04             
1 55974U 23039B   26166.29421954  .00012661  00000+0  24533-3 0  9999
2 55974  97.5161 339.3429 0004875 100.7368 259.4431 15.47834280180552
TIANMU-1 05             
1 55975U 23039C   26166.28469133  .00012685  00000+0  25157-3 0  9999
2 55975  97.5207 339.7948 0003917 119.2896 240.8746 15.47164737180524
TIANMU-1 06             
1 55976U 23039D   26166.29748106  .00012532  00000+0  24368-3 0  9995
2 55976  97.5214 340.4421 0004337 115.2853 244.8847 15.47738951180558
FENGYUN 3G              
1 56232U 23055A   26165.98261102  .00022053  00000+0  35853-3 0  9990
2 56232  49.9936 357.3811 0006928 287.4907  72.5303 15.52542988179668
METEOR-M2 3             
1 57166U 23091A   26166.27165169  .00000003  00000+0  20219-4 0  9998
2 57166  98.6090 221.2891 0004254 160.4135 199.7209 14.24046652154246
TIANMU-1 07             
1 57399U 23101A   26166.26864286  .00005308  00000+0  18652-3 0  9993
2 57399  97.2592 216.9809 0004006 125.4730 234.6885 15.29788032161353
TIANMU-1 08             
1 57400U 23101B   26166.30070104  .00005263  00000+0  18490-3 0  9999
2 57400  97.2582 216.7832 0005529 119.5804 240.5989 15.29792910161357
TIANMU-1 09             
1 57401U 23101C   26166.28415330  .00005492  00000+0  19268-3 0  9999
2 57401  97.2540 216.1837 0004484 131.1450 229.0179 15.29823471161357
TIANMU-1 10             
1 57402U 23101D   26166.25175869  .00005562  00000+0  19524-3 0  9990
2 57402  97.2620 217.2005 0006062 131.1725 229.0040 15.29794848161346
FENGYUN 3F              
1 57490U 23111A   26166.28305140  .00000052  00000+0  44968-4 0  9998
2 57490  98.6835 236.3272 0001584  94.8219 265.3138 14.19938821148593
ARKTIKA-M 2             
1 58584U 23198A   26160.78386103  .00000212  00000+0  00000+0 0  9997
2 58584  63.2205 155.1874 6900401 267.4353  18.7899  2.00606537 18179
TIANMU-1 11             
1 58645U 23205A   26166.28417874  .00004822  00000+0  18466-3 0  9995
2 58645  97.3441 187.8708 0009204  23.6702 336.4959 15.26978427137238
TIANMU-1 12             
1 58646U 23205B   26166.25449833  .00004821  00000+0  18490-3 0  9999
2 58646  97.3429 187.5977 0006949  10.4938 349.6445 15.26942393137215
TIANMU-1 13             
1 58647U 23205C   26166.28649456  .00004898  00000+0  18866-3 0  9997
2 58647  97.3459 187.9015 0006115 349.2140  10.8967 15.26796174137219
TIANMU-1 14             
1 58648U 23205D   26166.27175656  .00004860  00000+0  18696-3 0  9993
2 58648  97.3394 187.0703 0007077 353.0291   7.0848 15.26840657137213
TIANMU-1 19             
1 58660U 23208A   26166.26158580  .00006793  00000+0  22551-3 0  9998
2 58660  97.4508 282.5511 0003957 336.9694  23.1370 15.31548724137038
